[{"spaceTrack":{"CCSDS_OMM_VERS":"2.0","COMMENT":"GENERATED VIA SPACE-TRACK.ORG API","CREATION_DATE":"2021-10-25T22:36:11","ORIGINATOR":"18 SPCS","OBJECT_NAME":"STARLINK-2461","OBJECT_ID":"2021-040A","CENTER_NAME":"EARTH","REF_FRAME":"TEME","TIME_SYSTEM":"UTC","MEAN_ELEMENT_THEORY":"SGP4","EPOCH":"2021-10-25T13:11:15.813312","MEAN_MOTION":15.06405006,"ECCENTRICITY":0.00017,"INCLINATION":53.0545,"RA_OF_ASC_NODE":151.9603,"ARG_OF_PERICENTER":78.6114,"MEAN_ANOMALY":281.5066,"EPHEMERIS_TYPE":0,"CLASSIFICATION_TYPE":"U","NORAD_CAT_ID":48428,"ELEMENT_SET_NO":999,"REV_AT_EPOCH":2726,"BSTAR":-0.000059805,"MEAN_MOTION_DOT":-0.00001172,"MEAN_MOTION_DDOT":0,"SEMIMAJOR_AXIS":6925.333,"PERIOD":95.592,"APOAPSIS":548.376,"PERIAPSIS":546.021,"OBJECT_TYPE":"PAYLOAD","RCS_SIZE":"LARGE","COUNTRY_CODE":"US","LAUNCH_DATE":"2021-05-09","SITE":"AFETR","DECAY_DATE":null,"DECAYED":0,"FILE":3183675,"GP_ID":188150543,"TLE_LINE0":"0 STARLINK-2461","TLE_LINE1":"1 48428U 21040A   21298.54948858 -.00001172  00000-0 -59805-4 0  9990","TLE_LINE2":"2 48428  53.0545 151.9603 0001700  78.6114 281.5066 15.06405006 27262"},"height_km":554.3916616060769,"latitude":-22.833146735153043,"launch":"6079bd1c9a06446e8c61bf76","longitude":76.32872398831324,"velocity_kms":7.584174727455178,"version":"v1.0","id":"60a42564b913a10006eea2ae"},{"spaceTrack":{"CCSDS_OMM_VERS":"2.0","COMMENT":"GENERATED VIA SPACE-TRACK.ORG API","CREATION_DATE":"2021-10-26T06:56:12","ORIGINATOR":"18 SPCS","OBJECT_NAME":"STARLINK-2645","OBJECT_ID":"2021-040S","CENTER_NAME":"EARTH","REF_FRAME":"TEME","TIME_SYSTEM":"UTC","MEAN_ELEMENT_THEORY":"SGP4","EPOCH":"2021-10-26T00:33:59.817600","MEAN_MOTION":15.06398839,"ECCENTRICITY":0.0001847,"INCLINATION":53.0548,"RA_OF_ASC_NODE":144.8305,"ARG_OF_PERICENTER":70.964,"MEAN_ANOMALY":289.1549,"EPHEMERIS_TYPE":0,"CLASSIFICATION_TYPE":"U","NORAD_CAT_ID":48444,"ELEMENT_SET_NO":999,"REV_AT_EPOCH":2740,"BSTAR":0.00007925,"MEAN_MOTION_DOT":0.00000899,"MEAN_MOTION_DDOT":0,"SEMIMAJOR_AXIS":6925.352,"PERIOD":95.592,"APOAPSIS":548.496,"PERIAPSIS":545.938,"OBJECT_TYPE":"PAYLOAD","RCS_SIZE":"LARGE","COUNTRY_CODE":"US","LAUNCH_DATE":"2021-05-09","SITE":"AFETR","DECAY_DATE":null,"DECAYED":0,"FILE":3184230,"GP_ID":188163008,"TLE_LINE0":"0 STARLINK-2645","TLE_LINE1":"1 48444U 21040S   21299.02360900  .00000899  00000-0  79250-4 0  9997","TLE_LINE2":"2 48444  53.0548 144.8305 0001847  70.9640 289.1549 15.06398839 27405"},"height_km":547.4337821921717,"latitude":18.884308057813712,"launch":"6079bd1c9a06446e8c61bf76","longitude":38.1507016019177,"velocity_kms":7.591211582935738,"version":"v1.0","id":"60a441327cf2d100068c64e3"},{"spaceTrack":{"CCSDS_OMM_VERS":"2.0","COMMENT":"GENERATED VIA SPACE-TRACK.ORG API","CREATION_DATE":"2021-10-26T06:56:12","ORIGINATOR":"18 SPCS","OBJECT_NAME":"STARLINK-2642","OBJECT_ID":"2021-040K","CENTER_NAME":"EARTH","REF_FRAME":"TEME","TIME_SYSTEM":"UTC","MEAN_ELEMENT_THEORY":"SGP4","EPOCH":"2021-10-26T00:00:43.501536","MEAN_MOTION":15.04763106,"ECCENTRICITY":0.0002232,"INCLINATION":53.0544,"RA_OF_ASC_NODE":154.875,"ARG_OF_PERICENTER":74.8226,"MEAN_ANOMALY":285.3009,"EPHEMERIS_TYPE":0,"CLASSIFICATION_TYPE":"U","NORAD_CAT_ID":48437,"ELEMENT_SET_NO":999,"REV_AT_EPOCH":2726,"BSTAR":0.000099102,"MEAN_MOTION_DOT":0.00001135,"MEAN_MOTION_DDOT":0,"SEMIMAJOR_AXIS":6930.37,"PERIOD":95.696,"APOAPSIS":553.782,"PERIAPSIS":550.688,"OBJECT_TYPE":"PAYLOAD","RCS_SIZE":"MEDIUM","COUNTRY_CODE":"US","LAUNCH_DATE":"2021-05-09","SITE":"AFETR","DECAY_DATE":null,"DECAYED":0,"FILE":3184228,"GP_ID":188162974,"TLE_LINE0":"0 STARLINK-2642","TLE_LINE1":"1 48437U 21040K   21299.00050349  .00001135  00000-0  99102-4 0  9992","TLE_LINE2":"2 48437  53.0544 154.8750 0002232  74.8226 285.3009 15.04763106 27264"},"height_km":571.8934605716058,"latitude":-52.51651639683288,"launch":"6079bd1c9a06446e8c61bf76","longitude":165.66687864232503,"velocity_kms":7.57398216925215,"version":"v1.0","id":"60a44132b913a10006eea4bd"},{"spaceTrack":{"CCSDS_OMM_VERS":"2.0","COMMENT":"GENERATED VIA SPACE-TRACK.ORG API","CREATION_DATE":"2021-10-26T06:56:12","ORIGINATOR":"18 SPCS","OBJECT_NAME":"STARLINK-2247","OBJECT_ID":"2021-040U","CENTER_NAME":"EARTH","REF_FRAME":"TEME","TIME_SYSTEM":"UTC","MEAN_ELEMENT_THEORY":"SGP4","EPOCH":"2021-10-26T00:23:23.131680","MEAN_MOTION":15.06402121,"ECCENTRICITY":0.0001947,"INCLINATION":53.0545,"RA_OF_ASC_NODE":144.863,"ARG_OF_PERICENTER":76.1513,"MEAN_ANOMALY":283.9693,"EPHEMERIS_TYPE":0,"CLASSIFICATION_TYPE":"U","NORAD_CAT_ID":48446,"ELEMENT_SET_NO":999,"REV_AT_EPOCH":2740,"BSTAR":0.0001333,"MEAN_MOTION_DOT":0.00001704,"MEAN_MOTION_DDOT":0,"SEMIMAJOR_AXIS":6925.342,"PERIOD":95.592,"APOAPSIS":548.555,"PERIAPSIS":545.859,"OBJECT_TYPE":"PAYLOAD","RCS_SIZE":"LARGE","COUNTRY_CODE":"US","LAUNCH_DATE":"2021-05-09","SITE":"AFETR","DECAY_DATE":null,"DECAYED":0,"FILE":3184244,"GP_ID":188163370,"TLE_LINE0":"0 STARLINK-2247","TLE_LINE1":"1 48446U 21040U   21299.01623995  .00001704  00000-0  13330-3 0  9996","TLE_LINE2":"2 48446  53.0545 144.8630 0001947  76.1513 283.9693 15.06402121 27405"},"height_km":551.3122874262463,"latitude":-13.065241050214137,"launch":"6079bd1c9a06446e8c61bf76","longitude":62.96355565858569,"velocity_kms":7.5862589185625415,"version":"v1.0","id":"60a44132b913a10006eea4c9"},{"spaceTrack":{"CCSDS_OMM_VERS":"2.0","COMMENT":"GENERATED VIA SPACE-TRACK.ORG API","CREATION_DATE":"2021-10-26T06:56:12","ORIGINATOR":"18 SPCS","OBJECT_NAME":"STARLINK-2632","OBJECT_ID":"2021-040W","CENTER_NAME":"EARTH","REF_FRAME":"TEME","TIME_SYSTEM":"UTC","MEAN_ELEMENT_THEORY":"SGP4","EPOCH":"2021-10-25T23:18:20.371104","MEAN_MOTION":15.06396475,"ECCENTRICITY":0.0001631,"INCLINATION":53.0556,"RA_OF_ASC_NODE":145.0613,"ARG_OF_PERICENTER":85.0752,"MEAN_ANOMALY":275.0424,"EPHEMERIS_TYPE":0,"CLASSIFICATION_TYPE":"U","NORAD_CAT_ID":48448,"ELEMENT_SET_NO":999,"REV_AT_EPOCH":2738,"BSTAR":0.00010652,"MEAN_MOTION_DOT":0.00001305,"MEAN_MOTION_DDOT":0,"SEMIMAJOR_AXIS":6925.359,"PERIOD":95.592,"APOAPSIS":548.354,"PERIAPSIS":546.095,"OBJECT_TYPE":"PAYLOAD","RCS_SIZE":"LARGE","COUNTRY_CODE":"US","LAUNCH_DATE":"2021-05-09","SITE":"AFETR","DECAY_DATE":null,"DECAYED":0,"FILE":3184230,"GP_ID":188163002,"TLE_LINE0":"0 STARLINK-2632","TLE_LINE1":"1 48448U 21040W   21298.97106911  .00001305  00000-0  10652-3 0  9997","TLE_LINE2":"2 48448  53.0556 145.0613 0001631  85.0752 275.0424 15.06396475 27382"},"height_km":552.4563795222848,"latitude":52.32033208390674,"launch":"6079bd1c9a06446e8c61bf76","longitude":-51.473038381979585,"velocity_kms":7.592472561931163,"version":"v1.0","id":"60a44132b913a10006eea4d1"},{"spaceTrack":{"CCSDS_OMM_VERS":"2.0","COMMENT":"GENERATED VIA SPACE-TRACK.ORG API","CREATION_DATE":"2021-10-26T06:56:12","ORIGINATOR":"18 SPCS","OBJECT_NAME":"STARLINK-2702","OBJECT_ID":"2021-040P","CENTER_NAME":"EARTH","REF_FRAME":"TEME","TIME_SYSTEM":"UTC","MEAN_ELEMENT_THEORY":"SGP4","EPOCH":"2021-10-25T23:14:21.310080","MEAN_MOTION":15.06394799,"ECCENTRICITY":0.000192,"INCLINATION":53.0554,"RA_OF_ASC_NODE":145.0759,"ARG_OF_PERICENTER":86.8023,"MEAN_ANOMALY":273.3185,"EPHEMERIS_TYPE":0,"CLASSIFICATION_TYPE":"U","NORAD_CAT_ID":48441,"ELEMENT_SET_NO":999,"REV_AT_EPOCH":2739,"BSTAR":-0.000025099,"MEAN_MOTION_DOT":-0.00000655,"MEAN_MOTION_DDOT":0,"SEMIMAJOR_AXIS":6925.364,"PERIOD":95.592,"APOAPSIS":548.559,"PERIAPSIS":545.9,"OBJECT_TYPE":"PAYLOAD","RCS_SIZE":"LARGE","COUNTRY_CODE":"US","LAUNCH_DATE":"2021-05-09","SITE":"AFETR","DECAY_DATE":null,"DECAYED":0,"FILE":3184229,"GP_ID":188162990,"TLE_LINE0":"0 STARLINK-2702","TLE_LINE1":"1 48441U 21040P   21298.96830220 -.00000655  00000-0 -25099-4 0  9997","TLE_LINE2":"2 48441  53.0554 145.0759 0001920  86.8023 273.3185 15.06394799 27398"},"height_km":552.371685764484,"latitude":52.74642918728423,"launch":"6079bd1c9a06446e8c61bf76","longitude":-26.591991716689076,"velocity_kms":7.592666059489278,"version":"v1.0","id":"60a44133b913a10006eea4d9"},{"spaceTrack":{"CCSDS_OMM_VERS":"2.0","COMMENT":"GENERATED VIA SPACE-TRACK.ORG API","CREATION_DATE":"2021-10-26T14:46:11","ORIGINATOR":"18 SPCS","OBJECT_NAME":"STARLINK-2699","OBJECT_ID":"2021-040F","CENTER_NAME":"EARTH","REF_FRAME":"TEME","TIME_SYSTEM":"UTC","MEAN_ELEMENT_THEORY":"SGP4","EPOCH":"2021-10-26T14:00:04.000032","MEAN_MOTION":15.06415173,"ECCENTRICITY":0.0002058,"INCLINATION":53.0517,"RA_OF_ASC_NODE":112.3242,"ARG_OF_PERICENTER":70.3073,"MEAN_ANOMALY":237.2965,"EPHEMERIS_TYPE":0,"CLASSIFICATION_TYPE":"U","NORAD_CAT_ID":48433,"ELEMENT_SET_NO":999,"REV_AT_EPOCH":2723,"BSTAR":-0.0015037,"MEAN_MOTION_DOT":-0.00022618,"MEAN_MOTION_DDOT":0,"SEMIMAJOR_AXIS":6925.302,"PERIOD":95.591,"APOAPSIS":548.592,"PERIAPSIS":545.742,"OBJECT_TYPE":"PAYLOAD","RCS_SIZE":"LARGE","COUNTRY_CODE":"US","LAUNCH_DATE":"2021-05-09","SITE":"AFETR","DECAY_DATE":null,"DECAYED":0,"FILE":3184807,"GP_ID":188175040,"TLE_LINE0":"0 STARLINK-2699","TLE_LINE1":"1 48433U 21040F   21299.58337963 -.00022618  00000-0 -15037-2 0  9995","TLE_LINE2":"2 48433  53.0517 112.3242 0002058  70.3073 237.2965 15.06415173 27236"},"height_km":561.2318665653329,"latitude":-40.26476901053034,"launch":"6079bd1c9a06446e8c61bf76","longitude":163.6609115659573,"velocity_kms":7.580126936150359,"version":"v1.0","id":"60a44133b913a10006eea4fe"}]